{
  "norad_id": 60551,
  "name": "BRO-14",
  "history": [
    {
      "epoch": "2026-03-28T17:39:48.755808",
      "apogee_km": 584.0875562539713,
      "perigee_km": 574.5388732812171,
      "latitude_deg": -83.29625538439448,
      "longitude_deg": -54.245826879749075,
      "semi_major_axis_km": 6957.450214767594,
      "eccentricity": 0.00068622,
      "inclination_deg": 97.6904,
      "raan_deg": 164.9567,
      "arg_perigee_deg": 19.0066,
      "mean_anomaly_deg": 341.141,
      "mean_motion_rev_day": 14.95986247
    },
    {
      "epoch": "2026-03-29T04:54:01.949472",
      "apogee_km": 584.050883673448,
      "perigee_km": 574.5539788497763,
      "latitude_deg": -45.38144947562568,
      "longitude_deg": -9.297833919990808,
      "semi_major_axis_km": 6957.439431261612,
      "eccentricity": 0.0006825,
      "inclination_deg": 97.6904,
      "raan_deg": 165.4166,
      "arg_perigee_deg": 17.4896,
      "mean_anomaly_deg": 342.6559,
      "mean_motion_rev_day": 14.95989725
    }
  ]
}